ALOS-4 (DAICHI-4)       
1 60182U 24123A   24273.21649942  .00005161  00000+0  69749-3 0  9994
2 60182  97.9215   8.3774 0001411  97.3164 262.8208 14.79466468 13320
